[{"OBJECT_NAME":"UNISAT-7","OBJECT_ID":"2021-022P","EPOCH":"2026-03-09T16:28:31.560096","MEAN_MOTION":15.37617151,"ECCENTRICITY":0.00117035,"INCLINATION":97.3969,"RA_OF_ASC_NODE":332.7353,"ARG_OF_PERICENTER":74.8463,"MEAN_ANOMALY":285.4075,"EPHEMERIS_TYPE":0,"CLASSIFICATION_TYPE":"U","NORAD_CAT_ID":47945,"ELEMENT_SET_NO":999,"REV_AT_EPOCH":27455,"BSTAR":0.000470835,"MEAN_MOTION_DOT":0.00017358,"MEAN_MOTION_DDOT":0},{"OBJECT_NAME":"STARLINK-32664","OBJECT_ID":"2024-229N","EPOCH":"2026-03-09T22:00:01.999584","MEAN_MOTION":15.32430196,"ECCENTRICITY":0.00073798,"INCLINATION":43.0018,"RA_OF_ASC_NODE":269.0847,"ARG_OF_PERICENTER":279.2302,"MEAN_ANOMALY":315.7732,"EPHEMERIS_TYPE":0,"CLASSIFICATION_TYPE":"U","NORAD_CAT_ID":62204,"ELEMENT_SET_NO":999,"REV_AT_EPOCH":570,"BSTAR":0.0043606707,"MEAN_MOTION_DOT":0.00141936,"MEAN_MOTION_DDOT":0}]
